{"type": "FeatureCollection", "features": [ {"type": "Feature", "properties": {"norad_id": 43437, "name": "SENTINEL-3B", "group": "resource", "lat": 2.2586826460417364, "lon": -119.42836859706219, "alt_km": 805.1815242453386, "timestamp": "2025-12-21T03:56:50.512178+00:00", "meta": {"OBJECT_NAME": "SENTINEL-3B", "OBJECT_ID": "2018-039A", "EPOCH": "2025-12-20T18:42:07.841952", "MEAN_MOTION": 14.26736862, "ECCENTRICITY": 0.0001636, "INCLINATION": 98.6257, "RA_OF_ASC_NODE": 59.849, "ARG_OF_PERICENTER": 93.7812, "MEAN_ANOMALY": 266.3555, "EPHEMERIS_TYPE": 0, "CLASSIFICATION_TYPE": "U", "NORAD_CAT_ID": 43437, "ELEMENT_SET_NO": 999, "REV_AT_EPOCH": 39868, "BSTAR": 5.9275e-05, "MEAN_MOTION_DOT": 1e-06, "MEAN_MOTION_DDOT": 0}, "tle": {"line1": "1 43437U 18039A   25354.77925743  .00000100  00000+0  59275-4 0  9997", "line2": "2 43437  98.6257  59.8490 0001636  93.7812 266.3555 14.26736862398682"}}, "geometry": {"type": "Point", "coordinates": [-119.42836859706219, 2.2586826460417364]}}, {"type": "Feature", "properties": {"norad_id": 43461, "name": "GAOFEN-5 01", "group": "resource", "lat": 71.39949807931984, "lon": 164.4372339229121, "alt_km": 685.2904696973237, "timestamp": "2025-12-21T03:56:50.512187+00:00", "meta": {"OBJECT_NAME": "GAOFEN-5 01", "OBJECT_ID": "2018-043A", "EPOCH": "2025-12-20T19:14:21.410016", "MEAN_MOTION": 14.60417662, "ECCENTRICITY": 5.25e-05, "INCLINATION": 98.4337, "RA_OF_ASC_NODE": 317.91, "ARG_OF_PERICENTER": 287.5281, "MEAN_ANOMALY": 72.5862, "EPHEMERIS_TYPE": 0, "CLASSIFICATION_TYPE": "U", "NORAD_CAT_ID": 43461, "ELEMENT_SET_NO": 999, "REV_AT_EPOCH": 40565, "BSTAR": 7.1479e-05, "MEAN_MOTION_DOT": 2.97e-06, "MEAN_MOTION_DDOT": 0}, "tle": {"line1": "1 43461U 18043A   25354.80163669  .00000297  00000+0  71479-4 0  9991", "line2": "2 43461  98.4337 317.9100 0000525 287.5281  72.5862 14.60417662405657"}}, "geometry": {"type": "Point", "coordinates": [164.4372339229121, 71.39949807931984]}}, {"type": "Feature", "properties": {"norad_id": 43484, "name": "GAOFEN-6", "group": "resource", "lat": -50.430815163918155, "lon": -130.40303838208425, "alt_km": 655.8821481646837, "timestamp": "2025-12-21T03:56:50.512196+00:00", "meta": {"OBJECT_NAME": "GAOFEN-6", "OBJECT_ID": "2018-048A", "EPOCH": "2025-12-20T20:23:56.829984", "MEAN_MOTION": 14.76578338, "ECCENTRICITY": 0.0012848, "INCLINATION": 97.8028, "RA_OF_ASC_NODE": 58.8447, "ARG_OF_PERICENTER": 39.6587, "MEAN_ANOMALY": 320.556, "EPHEMERIS_TYPE": 0, "CLASSIFICATION_TYPE": "U", "NORAD_CAT_ID": 43484, "ELEMENT_SET_NO": 999, "REV_AT_EPOCH": 40707, "BSTAR": 3.0691e-05, "MEAN_MOTION_DOT": 1.65e-06, "MEAN_MOTION_DDOT": 0}, "tle": {"line1": "1 43484U 18048A   25354.84996331  .00000165  00000+0  30691-4 0  9990", "line2": "2 43484  97.8028  58.8447 0012848  39.6587 320.5560 14.76578338407077"}}, "geometry": {"type": "Point", "coordinates": [-130.40303838208425, -50.430815163918155]}}, {"type": "Feature", "properties": {"norad_id": 43585, "name": "GAOFEN-11 01", "group": "resource", "lat": 78.31152303524709, "lon": 20.635378221551857, "alt_km": 413.72732200320297, "timestamp": "2025-12-21T03:56:50.512207+00:00", "meta": {"OBJECT_NAME": "GAOFEN-11 01", "OBJECT_ID": "2018-063A", "EPOCH": "2025-12-20T21:24:00.465984", "MEAN_MOTION": 15.49427725, "ECCENTRICITY": 0.0003915, "INCLINATION": 97.1558, "RA_OF_ASC_NODE": 57.7583, "ARG_OF_PERICENTER": 270.7659, "MEAN_ANOMALY": 89.3144, "EPHEMERIS_TYPE": 0, "CLASSIFICATION_TYPE": "U", "NORAD_CAT_ID": 43585, "ELEMENT_SET_NO": 999, "REV_AT_EPOCH": 41268, "BSTAR": 0.00010575, "MEAN_MOTION_DOT": 5.717e-05, "MEAN_MOTION_DDOT": 0}, "tle": {"line1": "1 43585U 18063A   25354.89167206  .00005717  00000+0  10575-3 0  9991", "line2": "2 43585  97.1558  57.7583 0003915 270.7659  89.3144 15.49427725412687"}}, "geometry": {"type": "Point", "coordinates": [20.635378221551857, 78.31152303524709]}}, {"type": "Feature", "properties": {"norad_id": 43613, "name": "ICESAT-2", "group": "resource", "lat": -76.74821649089488, "lon": 54.457570797217144, "alt_km": 489.97578524651453, "timestamp": "2025-12-21T03:56:50.512216+00:00", "meta": {"OBJECT_NAME": "ICESAT-2", "OBJECT_ID": "2018-070A", "EPOCH": "2025-12-20T18:58:08.984064", "MEAN_MOTION": 15.28236525, "ECCENTRICITY": 0.0002879, "INCLINATION": 92.0046, "RA_OF_ASC_NODE": 242.9099, "ARG_OF_PERICENTER": 120.5935, "MEAN_ANOMALY": 239.5598, "EPHEMERIS_TYPE": 0, "CLASSIFICATION_TYPE": "U", "NORAD_CAT_ID": 43613, "ELEMENT_SET_NO": 999, "REV_AT_EPOCH": 40521, "BSTAR": 0.00030116, "MEAN_MOTION_DOT": 8.284e-05, "MEAN_MOTION_DDOT": 0}, "tle": {"line1": "1 43613U 18070A   25354.79038176  .00008284  00000+0  30116-3 0  9998", "line2": "2 43613  92.0046 242.9099 0002879 120.5935 239.5598 15.28236525405218"}}, "geometry": {"type": "Point", "coordinates": [54.457570797217144, -76.74821649089488]}}, {"type": "Feature", "properties": {"norad_id": 43719, "name": "HYSIS", "group": "resource", "lat": -30.200216556363955, "lon": 62.80191338446238, "alt_km": 639.4044779575679, "timestamp": "2025-12-21T03:56:50.512225+00:00", "meta": {"OBJECT_NAME": "HYSIS", "OBJECT_ID": "2018-096A", "EPOCH": "2025-12-20T19:57:53.230176", "MEAN_MOTION": 14.78665944, "ECCENTRICITY": 0.0001047, "INCLINATION": 98.0094, "RA_OF_ASC_NODE": 57.7703, "ARG_OF_PERICENTER": 51.3244, "MEAN_ANOMALY": 308.806, "EPHEMERIS_TYPE": 0, "CLASSIFICATION_TYPE": "U", "NORAD_CAT_ID": 43719, "ELEMENT_SET_NO": 999, "REV_AT_EPOCH": 38106, "BSTAR": 0.00012734, "MEAN_MOTION_DOT": 8.81e-06, "MEAN_MOTION_DDOT": 0}, "tle": {"line1": "1 43719U 18096A   25354.83186609  .00000881  00000+0  12734-3 0  9994", "line2": "2 43719  98.0094  57.7703 0001047  51.3244 308.8060 14.78665944381063"}}, "geometry": {"type": "Point", "coordinates": [62.80191338446238, -30.200216556363955]}}, {"type": "Feature", "properties": {"norad_id": 43783, "name": "KAZSTSAT", "group": "resource", "lat": 66.40001063311067, "lon": -132.57746442053414, "alt_km": 566.5680683173532, "timestamp": "2025-12-21T03:56:50.512234+00:00", "meta": {"OBJECT_NAME": "KAZSTSAT", "OBJECT_ID": "2018-099AB", "EPOCH": "2025-12-20T08:13:38.358048", "MEAN_MOTION": 14.99364446, "ECCENTRICITY": 0.00059921, "INCLINATION": 97.453, "RA_OF_ASC_NODE": 29.2006, "ARG_OF_PERICENTER": 296.0464, "MEAN_ANOMALY": 64.0142, "EPHEMERIS_TYPE": 0, "CLASSIFICATION_TYPE": "U", "NORAD_CAT_ID": 43783, "ELEMENT_SET_NO": 999, "REV_AT_EPOCH": 38450, "BSTAR": 2.1221197e-05, "MEAN_MOTION_DOT": 2.04e-06, "MEAN_MOTION_DDOT": 0}, "tle": {"line1": "1 43783U 18099AB  25354.34280507  .00000204  00000+0  21221-4 0  9997", "line2": "2 43783  97.4530  29.2006 0005992 296.0464  64.0142 14.99364446384507"}}, "geometry": {"type": "Point", "coordinates": [-132.57746442053414, 66.40001063311067]}}, {"type": "Feature", "properties": {"norad_id": 43831, "name": "SAUDISAT 5A", "group": "resource", "lat": -62.082537488999264, "lon": -138.875531983232, "alt_km": 503.37488863926046, "timestamp": "2025-12-21T03:56:50.512244+00:00", "meta": {"OBJECT_NAME": "SAUDISAT 5A", "OBJECT_ID": "2018-102A", "EPOCH": "2025-12-20T20:35:24.150624", "MEAN_MOTION": 15.25747838, "ECCENTRICITY": 0.0011388, "INCLINATION": 97.3343, "RA_OF_ASC_NODE": 54.8925, "ARG_OF_PERICENTER": 51.2595, "MEAN_ANOMALY": 308.9659, "EPHEMERIS_TYPE": 0, "CLASSIFICATION_TYPE": "U", "NORAD_CAT_ID": 43831, "ELEMENT_SET_NO": 999, "REV_AT_EPOCH": 38846, "BSTAR": 0.00016909, "MEAN_MOTION_DOT": 4.25e-05, "MEAN_MOTION_DDOT": 0}, "tle": {"line1": "1 43831U 18102A   25354.85791841  .00004250  00000+0  16909-3 0  9991", "line2": "2 43831  97.3343  54.8925 0011388  51.2595 308.9659 15.25747838388460"}}, "geometry": {"type": "Point", "coordinates": [-138.875531983232, -62.082537488999264]}}, {"type": "Feature", "properties": {"norad_id": 43833, "name": "SAUDISAT 5B", "group": "resource", "lat": -53.74523073984244, "lon": 68.07574937003692, "alt_km": 496.8977653893926, "timestamp": "2025-12-21T03:56:50.512253+00:00", "meta": {"OBJECT_NAME": "SAUDISAT 5B", "OBJECT_ID": "2018-102C", "EPOCH": "2025-12-20T20:19:01.193376", "MEAN_MOTION": 15.26096436, "ECCENTRICITY": 0.001211, "INCLINATION": 97.3438, "RA_OF_ASC_NODE": 57.6345, "ARG_OF_PERICENTER": 53.3361, "MEAN_ANOMALY": 306.8989, "EPHEMERIS_TYPE": 0, "CLASSIFICATION_TYPE": "U", "NORAD_CAT_ID": 43833, "ELEMENT_SET_NO": 999, "REV_AT_EPOCH": 38857, "BSTAR": 0.00015688, "MEAN_MOTION_DOT": 3.981e-05, "MEAN_MOTION_DDOT": 0}, "tle": {"line1": "1 43833U 18102C   25354.84654159  .00003981  00000+0  15688-3 0  9995", "line2": "2 43833  97.3438  57.6345 0012110  53.3361 306.8989 15.26096436388579"}}, "geometry": {"type": "Point", "coordinates": [68.07574937003692, -53.74523073984244]}}, {"type": "Feature", "properties": {"norad_id": 44622, "name": "GAOFEN-10R", "group": "resource", "lat": 19.35153627539065, "lon": -60.13750184819565, "alt_km": 615.5197687689506, "timestamp": "2025-12-21T03:56:50.512263+00:00", "meta": {"OBJECT_NAME": "GAOFEN-10R", "OBJECT_ID": "2019-066A", "EPOCH": "2025-12-20T21:22:53.355648", "MEAN_MOTION": 14.82816813, "ECCENTRICITY": 0.0007324, "INCLINATION": 98.0289, "RA_OF_ASC_NODE": 302.4293, "ARG_OF_PERICENTER": 18.2635, "MEAN_ANOMALY": 341.884, "EPHEMERIS_TYPE": 0, "CLASSIFICATION_TYPE": "U", "NORAD_CAT_ID": 44622, "ELEMENT_SET_NO": 999, "REV_AT_EPOCH": 33595, "BSTAR": 0.00013732, "MEAN_MOTION_DOT": 1.057e-05, "MEAN_MOTION_DDOT": 0}, "tle": {"line1": "1 44622U 19066A   25354.89089532  .00001057  00000+0  13732-3 0  9994", "line2": "2 44622  98.0289 302.4293 0007324  18.2635 341.8840 14.82816813335955"}}, "geometry": {"type": "Point", "coordinates": [-60.13750184819565, 19.35153627539065]}}]}